NUSAT-1 (FRESCO)        
1 41557U 16033B   21351.25405340  .00002891  00000+0  99938-4 0  9991
2 41557  97.3927  84.2978 0011134 311.5598 100.6321 15.30688334309489
BEESAT-4                
1 41619U 16040W   21350.87286913  .00004295  00000+0  16539-3 0  9993
2 41619  97.2465  41.7373 0011550  52.3766 307.8520 15.26824817292835
CAS-2T & KS-1Q          
1 41847U 16066G   21350.88688473  .00000189  00000+0  38117-4 0  9997
2 41847  98.5786  50.5514 0365536  35.8048 326.7060 14.38301062268104
NAYIF-1 (EO-88)         
1 42017U 17008BX  21350.97539462  .00005077  00000+0  17916-3 0  9991
2 42017  97.2965  55.2483 0006057 164.6674 195.4751 15.29666805269145
ZHUHAI-1 02 (CAS-4B)    
1 42759U 17034B   21351.15939045  .00000760  00000+0  58393-4 0  9994
2 42759  43.0183 256.3647 0008662 233.5589 275.3144 15.10616686248772
ZHUHAI-1 01 (CAS-4A)    
1 42761U 17034D   21351.20274405  .00000793  00000+0  60246-4 0  9991
2 42761  43.0179 255.0446 0008856 235.7803 255.8167 15.10703517248780
MAX VALIER SAT          
1 42778U 17036P   21350.83846302  .00002499  00000+0  10456-3 0  9992
2 42778  97.2329  33.3137 0009992 249.1985 110.8183 15.24438137249060
RADFXSAT (FOX-1B)       
1 43017U 17073E   21350.70515807  .00001319  00000+0  10482-3 0  9998
2 43017  97.6925 247.3351 0254709  65.5822 297.1739 14.80012728220077
FOX-1D (AO-92)          
1 43137U 18004AC  21350.99104372  .00003152  00000+0  12447-3 0  9998
2 43137  97.3914  63.0836 0006914 290.9363  69.1135 15.26241214218487
DIWATA-2B               
1 43678U 18084H   21351.16461863 -.00000254  00000+0 -19413-4 0  9990
2 43678  97.9465 117.6609 0010191 159.6250 200.5385 14.91846781170673
ES'HAIL 2               
1 43700U 18090A   21351.15928458  .00000163  00000+0  00000+0 0  9994
2 43700   0.0186 339.7467 0002098 305.0466 244.3654  1.00269415 11449
FOX-1CLIFF (AO-95)      
1 43770U 18099N   21350.91739207  .00000638  00000+0  62501-4 0  9991
2 43770  97.6461  56.9001 0014933 162.5319 197.6419 14.95589967165725
ITASAT 1                
1 43786U 18099AE  21350.93648276  .00001096  00000+0  10297-3 0  9998
2 43786  97.6486  57.7230 0015844 155.2882 204.9101 14.95849688165761
JY1SAT (JO-97)          
1 43803U 18099AX  21351.00105888  .00001235  00000+0  11453-3 0  9994
2 43803  97.6447  57.5234 0015809 154.7571 205.4426 14.96153269165782
UWE-4                   
1 43880U 18111E   21350.99503694  .00000503  00000+0  48450-4 0  9993
2 43880  97.6777 255.5109 0011346 208.0712 151.9899 14.97176060160392
NEXUS (FO-99)           
1 43937U 19003F   21350.91240300  .00003758  00000+0  14370-3 0  9999
2 43937  97.1553  26.6774 0024243  85.3309 275.0699 15.26911538162090
PSAT2 (NO-104)          
1 44354U 19036R   21351.25954500  .00020853  00000+0  24905-3 0  9991
2 44354  28.5260 341.8930 0295900 108.4360 254.8635 15.21444489136757
BRICSAT2 (NO-103)       
1 44355U 19036S   21351.02573580  .00056417 -58213-5  44256-3 0  9994
2 44355  28.5257 260.0044 0197278 241.9519 116.1002 15.48186670137551
JAISAT-1                
1 44419U 19038F   21350.90576995  .00002923  00000+0  16121-3 0  9993
2 44419  97.6132 315.2707 0021999  46.0746 314.2296 15.14584150135408
DUCHIFAT-3              
1 44854U 19089C   21351.02845464  .00000832  00000+0  72201-4 0  9995
2 44854  36.9650 100.6668 0006981 185.5227 174.5443 14.99856831110528
CAS-6 (TO-108)          
1 44881U 19093C   21351.23332451  .00000089  00000+0  18096-4 0  9996
2 44881  97.9117  67.9400 0016368  61.5272 298.7589 14.81522270107798
RS-44 & BREEZE-KM R/B   
1 44909U 19096E   21350.71403610  .00000034  00000+0  89529-4 0  9997
2 44909  82.5211 351.7060 0217941  27.2713 333.9634 12.79711592 92135
ORBITAL FACTORY 2 (OF-2)
1 45113U 19071C   21350.30200046  .00006662  00000+0  18585-3 0  9997
2 45113  51.6407 234.5761 0010611 225.6040 134.4076 15.37929771105131
HUSKYSAT-1 (HO-107)     
1 45119U 19071J   21350.83871435  .00005592  00000+0  15845-3 0  9994
2 45119  51.6400 231.3981 0010146 223.9669 136.0508 15.37786976105215
BY70-2                  
1 45857U 20042B   21351.11284168  .00001456  00000+0  21038-3 0  9992
2 45857  97.9725  64.9145 0010084 351.8068   8.3016 14.77686736 78517
SALSAT                  
1 46495U 20068K   21350.94139144  .00000037  00000+0  72713-5 0  9994
2 46495  97.7108 287.5247 0016833 168.1760 191.9862 15.03709287 66759
BY70-3                  
1 46839U 20079N   21351.23122737  .00004805  00000+0  14123-3 0  9997
2 46839  97.2243  61.4793 0005165 267.5302 178.9652 15.35565405 62231
RADFXSAT-2 (AO-109)     
1 47311U 21002C   21351.24456316  .00002406  00000+0  11324-3 0  9999
2 47311  60.6863 326.5162 0033179 141.0100 219.3388 15.22557700 50702
UVSQ-SAT                
1 47438U 21006AB  21350.73586616  .00001750  00000+0  10059-3 0  9998
2 47438  97.4656  48.5215 0012493 181.5029 178.6167 15.13740100 49624
DIY-1 (ARDUIQUBE)       
1 47963U 21022AH  21350.46125347  .00004602  00000+0  29699-3 0  9998
2 47963  97.5464 249.5502 0020574  45.0190 315.2702 15.08594183 39321
